{
  "norad_id": 62188,
  "name": "TJS-13",
  "history": [
    {
      "epoch": "2026-03-27T15:36:06.166368",
      "apogee_km": 38796.49378638027,
      "perigee_km": 1555.5096802391672,
      "latitude_deg": 42.24448184048892,
      "longitude_deg": 5.206851520109922,
      "semi_major_axis_km": 26554.13873330972,
      "eccentricity": 0.70122749,
      "inclination_deg": 63.7216,
      "raan_deg": 48.5972,
      "arg_perigee_deg": 269.4779,
      "mean_anomaly_deg": 17.1085,
      "mean_motion_rev_day": 2.00633954
    }
  ]
}